{
  "type": "FeatureCollection",
  "features": [
    {
      "type": "Feature",
      "properties": {
        "norad_id": 33887,
        "name": "IRIDIUM 33 DEB",
        "group": "iridium-33-debris",
        "lat": -6.829753855352879,
        "lon": -3.3517346238724306,
        "alt_km": 775.8454562316438,
        "timestamp": "2025-12-27T08:36:18.768810+00:00",
        "meta_object_name": "IRIDIUM 33 DEB",
        "meta_object_id": "1997-051BG",
        "meta_epoch": "2025-12-27T00:31:57.063936",
        "meta_mean_motion": 14.372341,
        "meta_eccentricity": 0.000601,
        "meta_inclination": 86.3043,
        "meta_ra_of_asc_node": 357.2367,
        "meta_arg_of_pericenter": 173.3185,
        "meta_mean_anomaly": 240.7076,
        "meta_ephemeris_type": 0,
        "meta_classification_type": "U",
        "meta_norad_cat_id": 33887,
        "meta_element_set_no": 999,
        "meta_rev_at_epoch": 88370,
        "meta_bstar": 0.00017797,
        "meta_mean_motion_dot": 5.5e-06,
        "meta_mean_motion_ddot": 0,
        "tle_line1": "1 33887U 97051BG  25361.02218824  .00000550  00000+0  17797-3 0  9998",
        "tle_line2": "2 33887  86.3043 357.2367 0006010 173.3185 240.7076 14.37234100883700"
      },
      "geometry": {
        "type": "Point",
        "coordinates": [
          -3.3517346238724306,
          -6.829753855352879
        ]
      }
    },
    {
      "type": "Feature",
      "properties": {
        "norad_id": 33953,
        "name": "IRIDIUM 33 DEB",
        "group": "iridium-33-debris",
        "lat": 82.44233933835909,
        "lon": 75.90229405695929,
        "alt_km": 689.3600492695459,
        "timestamp": "2025-12-27T08:36:18.768821+00:00",
        "meta_object_name": "IRIDIUM 33 DEB",
        "meta_object_id": "1997-051BN",
        "meta_epoch": "2025-12-27T03:31:11.628768",
        "meta_mean_motion": 14.55459047,
        "meta_eccentricity": 0.0017398,
        "meta_inclination": 86.3835,
        "meta_ra_of_asc_node": 47.5249,
        "meta_arg_of_pericenter": 58.4623,
        "meta_mean_anomaly": 355.3188,
        "meta_ephemeris_type": 0,
        "meta_classification_type": "U",
        "meta_norad_cat_id": 33953,
        "meta_element_set_no": 999,
        "meta_rev_at_epoch": 88513,
        "meta_bstar": 0.0012769,
        "meta_mean_motion_dot": 5.584e-05,
        "meta_mean_motion_ddot": 0,
        "tle_line1": "1 33953U 97051BN  25361.14666237  .00005584  00000+0  12769-2 0  9995",
        "tle_line2": "2 33953  86.3835  47.5249 0017398  58.4623 355.3188 14.55459047885137"
      },
      "geometry": {
        "type": "Point",
        "coordinates": [
          75.90229405695929,
          82.44233933835909
        ]
      }
    },
    {
      "type": "Feature",
      "properties": {
        "norad_id": 33960,
        "name": "IRIDIUM 33 DEB",
        "group": "iridium-33-debris",
        "lat": 32.34308983083792,
        "lon": -75.00276267672486,
        "alt_km": 603.9915213804225,
        "timestamp": "2025-12-27T08:36:18.768832+00:00",
        "meta_object_name": "IRIDIUM 33 DEB",
        "meta_object_id": "1997-051BV",
        "meta_epoch": "2025-12-26T19:47:13.318944",
        "meta_mean_motion": 14.85911573,
        "meta_eccentricity": 0.00069591,
        "meta_inclination": 86.2536,
        "meta_ra_of_asc_node": 282.8713,
        "meta_arg_of_pericenter": 37.5065,
        "meta_mean_anomaly": 19.8748,
        "meta_ephemeris_type": 0,
        "meta_classification_type": "U",
        "meta_norad_cat_id": 33960,
        "meta_element_set_no": 999,
        "meta_rev_at_epoch": 89076,
        "meta_bstar": 0.0032209433,
        "meta_mean_motion_dot": 0.00028197,
        "meta_mean_motion_ddot": 0,
        "tle_line1": "1 33960U 97051BV  25360.82445971  .00028197  00000+0  32209-2 0  9993",
        "tle_line2": "2 33960  86.2536 282.8713 0006959  37.5065  19.8748 14.85911573890760"
      },
      "geometry": {
        "type": "Point",
        "coordinates": [
          -75.00276267672486,
          32.34308983083792
        ]
      }
    },
    {
      "type": "Feature",
      "properties": {
        "norad_id": 33966,
        "name": "IRIDIUM 33 DEB",
        "group": "iridium-33-debris",
        "lat": -84.77160651139644,
        "lon": -96.64004568438978,
        "alt_km": 737.686687252276,
        "timestamp": "2025-12-27T08:36:18.768843+00:00",
        "meta_object_name": "IRIDIUM 33 DEB",
        "meta_object_id": "1997-051CB",
        "meta_epoch": "2025-12-27T02:41:52.154880",
        "meta_mean_motion": 14.49650028,
        "meta_eccentricity": 0.0008949,
        "meta_inclination": 86.391,
        "meta_ra_of_asc_node": 39.858,
        "meta_arg_of_pericenter": 144.2354,
        "meta_mean_anomaly": 278.1615,
        "meta_ephemeris_type": 0,
        "meta_classification_type": "U",
        "meta_norad_cat_id": 33966,
        "meta_element_set_no": 999,
        "meta_rev_at_epoch": 88650,
        "meta_bstar": 0.00056096,
        "meta_mean_motion_dot": 2.176e-05,
        "meta_mean_motion_ddot": 0,
        "tle_line1": "1 33966U 97051CB  25361.11240920  .00002176  00000+0  56096-3 0  9999",
        "tle_line2": "2 33966  86.3910  39.8580 0008949 144.2354 278.1615 14.49650028886508"
      },
      "geometry": {
        "type": "Point",
        "coordinates": [
          -96.64004568438978,
          -84.77160651139644
        ]
      }
    },
    {
      "type": "Feature",
      "properties": {
        "norad_id": 34071,
        "name": "IRIDIUM 33 DEB",
        "group": "iridium-33-debris",
        "lat": -34.2172375296936,
        "lon": 8.982210117001594,
        "alt_km": 734.9728640503827,
        "timestamp": "2025-12-27T08:36:18.768854+00:00",
        "meta_object_name": "IRIDIUM 33 DEB",
        "meta_object_id": "1997-051CE",
        "meta_epoch": "2025-12-27T02:08:09.669120",
        "meta_mean_motion": 14.49529648,
        "meta_eccentricity": 0.0009785,
        "meta_inclination": 86.3454,
        "meta_ra_of_asc_node": 11.5904,
        "meta_arg_of_pericenter": 69.1445,
        "meta_mean_anomaly": 291.0806,
        "meta_ephemeris_type": 0,
        "meta_classification_type": "U",
        "meta_norad_cat_id": 34071,
        "meta_element_set_no": 999,
        "meta_rev_at_epoch": 88542,
        "meta_bstar": 0.00073604,
        "meta_mean_motion_dot": 2.842e-05,
        "meta_mean_motion_ddot": 0,
        "tle_line1": "1 34071U 97051CE  25361.08900080  .00002842  00000+0  73604-3 0  9997",
        "tle_line2": "2 34071  86.3454  11.5904 0009785  69.1445 291.0806 14.49529648885420"
      },
      "geometry": {
        "type": "Point",
        "coordinates": [
          8.982210117001594,
          -34.2172375296936
        ]
      }
    },
    {
      "type": "Feature",
      "properties": {
        "norad_id": 34077,
        "name": "IRIDIUM 33 DEB",
        "group": "iridium-33-debris",
        "lat": -78.23887169275817,
        "lon": -117.25690330832778,
        "alt_km": 684.6117046378367,
        "timestamp": "2025-12-27T08:36:18.768866+00:00",
        "meta_object_name": "IRIDIUM 33 DEB",
        "meta_object_id": "1997-051CL",
        "meta_epoch": "2025-12-27T02:47:01.299264",
        "meta_mean_motion": 14.65029406,
        "meta_eccentricity": 0.0008536,
        "meta_inclination": 86.3849,
        "meta_ra_of_asc_node": 45.1729,
        "meta_arg_of_pericenter": 351.6698,
        "meta_mean_anomaly": 68.7285,
        "meta_ephemeris_type": 0,
        "meta_classification_type": "U",
        "meta_norad_cat_id": 34077,
        "meta_element_set_no": 999,
        "meta_rev_at_epoch": 88543,
        "meta_bstar": 0.0019034,
        "meta_mean_motion_dot": 0.00010235,
        "meta_mean_motion_ddot": 0,
        "tle_line1": "1 34077U 97051CL  25361.11598726  .00010235  00000+0  19034-2 0  9998",
        "tle_line2": "2 34077  86.3849  45.1729 0008536 351.6698  68.7285 14.65029406885430"
      },
      "geometry": {
        "type": "Point",
        "coordinates": [
          -117.25690330832778,
          -78.23887169275817
        ]
      }
    },
    {
      "type": "Feature",
      "properties": {
        "norad_id": 34079,
        "name": "IRIDIUM 33 DEB",
        "group": "iridium-33-debris",
        "lat": 21.623906341675692,
        "lon": -179.42752734110115,
        "alt_km": 619.1888759211688,
        "timestamp": "2025-12-27T08:36:18.768893+00:00",
        "meta_object_name": "IRIDIUM 33 DEB",
        "meta_object_id": "1997-051CN",
        "meta_epoch": "2025-12-27T01:42:51.323040",
        "meta_mean_motion": 14.83927191,
        "meta_eccentricity": 0.0003744,
        "meta_inclination": 86.3778,
        "meta_ra_of_asc_node": 2.142,
        "meta_arg_of_pericenter": 311.9974,
        "meta_mean_anomaly": 113.4004,
        "meta_ephemeris_type": 0,
        "meta_classification_type": "U",
        "meta_norad_cat_id": 34079,
        "meta_element_set_no": 999,
        "meta_rev_at_epoch": 89190,
        "meta_bstar": 0.0022888,
        "meta_mean_motion_dot": 0.00019073,
        "meta_mean_motion_ddot": 0,
        "tle_line1": "1 34079U 97051CN  25361.07142735  .00019073  00000+0  22888-2 0  9990",
        "tle_line2": "2 34079  86.3778   2.1420 0003744 311.9974 113.4004 14.83927191891900"
      },
      "geometry": {
        "type": "Point",
        "coordinates": [
          -179.42752734110115,
          21.623906341675692
        ]
      }
    }
  ]
}